ONEWEB-0228             
1 48780U 21045P   23361.73264641  .00002137  00000+0  56400-2 0  9996
2 48780  87.8991  78.8357 0001886 108.0444 252.0891 13.15560351125671
